     3.02           N: GNSS NAV DATA    R: GLONASS          RINEX VERSION / TYPE
NetR9 5.37          Receiver Operator   20200518 000001 UTC PGM / RUN BY / DATE
    18    18  2185     7                                    LEAP SECONDS
                                                            END OF HEADER
R12 2020 05 17 23 45 00  .131594017148D-03  .272848410532D-11  .863700000000D+05
      .214851333008D+05  .521809577942D+00  .931322574615D-09  .000000000000D+00
      .131871376953D+05  .172472000122D+00 -.186264514923D-08 -.100000000000D+01
     -.380323681641D+04  .352500343323D+01  .000000000000D+00  .000000000000D+00
R17 2020 05 17 23 45 00  .325657427311D-03  .272848410532D-11  .863700000000D+05
      .158010195312D+05  .170931434631D+01  .186264514923D-08  .000000000000D+00
     -.140973720703D+05 -.948531150818D+00 -.931322574615D-09  .400000000000D+01
      .142026870117D+05 -.284693336487D+01 -.931322574615D-09  .000000000000D+00
